OBJECT_NAME,OBJECT_ID,EPOCH,MEAN_MOTION,ECCENTRICITY,INCLINATION,RA_OF_ASC_NODE,ARG_OF_PERICENTER,MEAN_ANOMALY,EPHEMERIS_TYPE,CLASSIFICATION_TYPE,NORAD_CAT_ID,ELEMENT_SET_NO,REV_AT_EPOCH,BSTAR,MEAN_MOTION_DOT,MEAN_MOTION_DDOT
ONEWEB-0336,2021-083S,2026-07-04T15:03:06.347520,13.13469696,.00019688,87.8970,316.7558,90.2855,269.8500,0,U,49202,999,23320,-.71291475E-3,-.248E-5,0
ONEWEB-0337,2021-083T,2026-07-04T18:56:55.261536,13.13469474,.00020764,87.8968,316.7293,96.3150,263.8216,0,U,49203,999,23322,-.34884174E-3,-.115E-5,0
ONEWEB-0338,2021-083U,2026-07-04T18:26:10.797792,13.20770201,.00019257,87.9185,270.9440,108.4717,251.6626,0,U,49204,999,23913,-.14530156E-3,-.46E-6,0
ONEWEB-0339,2021-083V,2026-07-04T19:09:17.983584,13.13469612,.00019653,87.8967,316.7203,108.1380,251.9963,0,U,49205,999,23320,.14914519E-3,.67E-6,0
ONEWEB-0340,2021-083W,2026-07-04T15:51:50.195232,13.18687542,.00019063,87.9189,331.9802,91.3575,268.7776,0,U,49206,999,23227,.21626208E-3,.98E-6,0
ONEWEB-0341,2021-083X,2026-07-04T16:01:32.715264,13.18687437,.00023572,87.9179,331.9808,94.5239,265.6163,0,U,49207,999,23229,.20425363E-3,.93E-6,0
ONEWEB-0342,2021-083Y,2026-07-05T05:30:26.757504,13.20772316,.00020799,87.9192,270.8418,102.6144,257.5222,0,U,49208,999,23916,.224726E-5,.14E-6,0
ONEWEB-0343,2021-083Z,2026-07-04T16:13:41.405952,13.18687379,.00019984,87.9182,331.9781,107.9890,252.1460,0,U,49209,999,23234,.22604986E-3,.102E-5,0
ONEWEB-0344,2021-083AA,2026-07-04T15:22:35.685120,13.13469749,.00022344,87.8966,316.7645,97.2613,262.8770,0,U,49210,999,23318,-.26197478E-4,.3E-7,0
ONEWEB-0345,2021-083AB,2026-07-04T18:49:47.948736,13.13469626,.00022358,87.8980,316.7200,98.2598,261.8784,0,U,49211,999,23321,-.69769775E-3,-.242E-5,0
ONEWEB-0346,2021-083AC,2026-07-04T19:47:21.425856,13.18687067,.00018512,87.9178,331.9481,75.6049,284.5289,0,U,49212,999,23230,.21309693E-3,.97E-6,0
ONEWEB-0348,2021-083AD,2026-07-05T05:15:54.279072,13.20771651,.00022722,87.9194,270.8480,86.8529,273.2865,0,U,49213,999,23919,-.11070766E-3,-.32E-6,0
ONEWEB-0350,2021-083AE,2026-07-04T21:06:17.983584,13.13471104,.00013815,87.8974,316.7059,132.0403,228.0844,0,U,49214,999,23325,.66545939E-3,.256E-5,0
ONEWEB-0351,2021-083AF,2026-07-05T05:05:58.946784,13.20769759,.000253,87.9193,270.8482,110.6760,249.4645,0,U,49215,999,23915,.38660007E-4,.29E-6,0
ONEWEB-0352,2021-083AG,2026-07-04T22:14:33.544032,13.13469174,.00020971,87.8973,316.7014,110.3217,249.8138,0,U,49216,999,23335,-.81570707E-3,-.285E-5,0
ONEWEB-0354,2021-083AH,2026-07-04T18:50:26.249856,13.20809628,.00021167,87.9154,270.9336,88.3787,271.7589,0,U,49217,999,23913,-.71338113E-3,-.277E-5,0
ONEWEB-0355,2021-083AJ,2026-07-04T15:37:36.334272,13.13374062,.00014631,87.8986,316.7605,104.9833,255.1459,0,U,49218,999,23319,-.32091523E-1,-.11675E-3,0
ONEWEB-0357,2021-083AK,2026-07-05T05:40:06.658752,13.20773765,.00021695,87.9193,270.8362,104.3516,255.7858,0,U,49219,999,23919,.16235577E-4,.2E-6,0
ONEWEB-0332,2021-090A,2026-07-04T17:25:03.015840,13.14502741,.00018529,87.8971,286.2144,106.4191,253.7143,0,U,49279,999,22988,.73613272E-3,.286E-5,0
ONEWEB-0347,2021-090B,2026-07-04T18:31:01.656480,13.20778286,.00016964,87.9193,270.9356,108.6509,251.4809,0,U,49280,999,23336,.11489049E-3,.6E-6,0
ONEWEB-0349,2021-090C,2026-07-04T19:17:05.759232,13.20773811,.00021021,87.9194,270.9313,99.7807,260.3563,0,U,49281,999,23215,.13797863E-3,.69E-6,0
ONEWEB-0353,2021-090D,2026-07-04T17:13:37.737696,13.14502633,.00018259,87.8969,286.2117,107.0881,253.0449,0,U,49282,999,22988,.42966949E-3,.172E-5,0
ONEWEB-0356,2021-090E,2026-07-04T17:25:34.762656,13.20770048,.00014729,87.9194,270.9401,80.7196,279.4104,0,U,49283,999,23214,.16426073E-4,.2E-6,0
ONEWEB-0358,2021-090F,2026-07-05T05:12:03.696480,13.20777409,.00020173,87.9194,270.8494,94.7134,265.4230,0,U,49284,999,23293,.17341217E-3,.84E-6,0
ONEWEB-0359,2021-090G,2026-07-05T04:58:53.690304,13.20769130,.00021947,87.9194,270.8439,93.2376,266.9008,0,U,49285,999,23291,.93346201E-4,.51E-6,0
ONEWEB-0360,2021-090H,2026-07-05T04:44:23.258688,13.20770528,.00021451,87.9194,270.8523,99.5319,260.6057,0,U,49286,999,23222,.1175404E-3,.61E-6,0
ONEWEB-0361,2021-090J,2026-07-04T19:12:15.804288,13.20772114,.00020674,87.9195,270.9299,95.6457,264.4912,0,U,49287,999,23262,.21600886E-3,.101E-5,0
ONEWEB-0362,2021-090K,2026-07-04T18:24:05.432256,13.19725370,.00021735,87.9184,301.4766,104.8101,255.3273,0,U,49288,999,22923,.12596258E-3,.63E-6,0
ONEWEB-0363,2021-090L,2026-07-04T17:44:59.822592,13.20771688,.00018305,87.9193,270.9421,91.8827,268.2516,0,U,49289,999,23262,.10937235E-3,.57E-6,0
ONEWEB-0364,2021-090M,2026-07-04T18:40:43.680576,13.20775985,.00021628,87.9192,270.9422,98.9646,261.1732,0,U,49290,999,23376,.77102484E-3,.327E-5,0
