ONEWEB-0336             
1 49202U 21083S   26185.62715680 -.00000248  00000+0 -71291-3 0  9996
2 49202  87.8970 316.7558 0001968  90.2855 269.8500 13.13469696233204
ONEWEB-0337             
1 49203U 21083T   26185.78952849 -.00000115  00000+0 -34884-3 0  9994
2 49203  87.8968 316.7293 0002076  96.3150 263.8216 13.13469474233228
ONEWEB-0338             
1 49204U 21083U   26185.76818053 -.00000046  00000+0 -14530-3 0  9990
2 49204  87.9185 270.9440 0001925 108.4717 251.6626 13.20770201239139
ONEWEB-0339             
1 49205U 21083V   26185.79812481  .00000067  00000+0  14915-3 0  9991
2 49205  87.8967 316.7203 0001965 108.1380 251.9963 13.13469612233202
ONEWEB-0340             
1 49206U 21083W   26185.66099763  .00000098  00000+0  21626-3 0  9999
2 49206  87.9189 331.9802 0001906  91.3575 268.7776 13.18687542232271
ONEWEB-0341             
1 49207U 21083X   26185.66773976  .00000093  00000+0  20425-3 0  9996
2 49207  87.9179 331.9808 0002357  94.5239 265.6163 13.18687437232291
ONEWEB-0342             
1 49208U 21083Y   26186.22947636  .00000014  00000+0  22473-5 0  9996
2 49208  87.9192 270.8418 0002079 102.6144 257.5222 13.20772316239165
ONEWEB-0343             
1 49209U 21083Z   26185.67617368  .00000102  00000+0  22605-3 0  9994
2 49209  87.9182 331.9781 0001998 107.9890 252.1460 13.18687379232341
ONEWEB-0344             
1 49210U 21083AA  26185.64069080  .00000003  00000+0 -26197-4 0  9997
2 49210  87.8966 316.7645 0002234  97.2613 262.8770 13.13469749233189
ONEWEB-0345             
1 49211U 21083AB  26185.78458274 -.00000242  00000+0 -69770-3 0  9999
2 49211  87.8980 316.7200 0002235  98.2598 261.8784 13.13469626233219
ONEWEB-0346             
1 49212U 21083AC  26185.82455354  .00000097  00000+0  21310-3 0  9995
2 49212  87.9178 331.9481 0001851  75.6049 284.5289 13.18687067232300
ONEWEB-0348             
1 49213U 21083AD  26186.21937823 -.00000032  00000+0 -11071-3 0  9990
2 49213  87.9194 270.8480 0002272  86.8529 273.2865 13.20771651239199
ONEWEB-0350             
1 49214U 21083AE  26185.87937481  .00000256  00000+0  66546-3 0  9995
2 49214  87.8974 316.7059 0001381 132.0403 228.0844 13.13471104233250
ONEWEB-0351             
1 49215U 21083AF  26186.21248781  .00000029  00000+0  38660-4 0  9998
2 49215  87.9193 270.8482 0002530 110.6760 249.4645 13.20769759239155
ONEWEB-0352             
1 49216U 21083AG  26185.92677713 -.00000285  00000+0 -81571-3 0  9991
2 49216  87.8973 316.7014 0002097 110.3217 249.8138 13.13469174233351
ONEWEB-0354             
1 49217U 21083AH  26185.78502604 -.00000277  00000+0 -71338-3 0  9993
2 49217  87.9154 270.9336 0002116  88.3787 271.7589 13.20809628239136
ONEWEB-0355             
1 49218U 21083AJ  26185.65111498 -.00011675  00000+0 -32092-1 0  9993
2 49218  87.8986 316.7605 0001463 104.9833 255.1459 13.13374062233191
ONEWEB-0357             
1 49219U 21083AK  26186.23618818  .00000020  00000+0  16236-4 0  9992
2 49219  87.9193 270.8362 0002169 104.3516 255.7858 13.20773765239195
ONEWEB-0332             
1 49279U 21090A   26185.72572935  .00000286  00000+0  73613-3 0  9993
2 49279  87.8971 286.2144 0001852 106.4191 253.7143 13.14502741229880
ONEWEB-0347             
1 49280U 21090B   26185.77154695  .00000060  00000+0  11489-3 0  9992
2 49280  87.9193 270.9356 0001696 108.6509 251.4809 13.20778286233365
ONEWEB-0349             
1 49281U 21090C   26185.80353888  .00000069  00000+0  13798-3 0  9996
2 49281  87.9194 270.9313 0002102  99.7807 260.3563 13.20773811232155
ONEWEB-0353             
1 49282U 21090D   26185.71779789  .00000172  00000+0  42967-3 0  9994
2 49282  87.8969 286.2117 0001825 107.0881 253.0449 13.14502633229886
ONEWEB-0356             
1 49283U 21090E   26185.72609679  .00000020  00000+0  16426-4 0  9990
2 49283  87.9194 270.9401 0001472  80.7196 279.4104 13.20770048232145
ONEWEB-0358             
1 49284U 21090F   26186.21670945  .00000084  00000+0  17341-3 0  9996
2 49284  87.9194 270.8494 0002017  94.7134 265.4230 13.20777409232930
ONEWEB-0359             
1 49285U 21090G   26186.20756586  .00000051  00000+0  93346-4 0  9996
2 49285  87.9194 270.8439 0002194  93.2376 266.9008 13.20769130232917
ONEWEB-0360             
1 49286U 21090H   26186.19749142  .00000061  00000+0  11754-3 0  9998
2 49286  87.9194 270.8523 0002145  99.5319 260.6057 13.20770528232226
ONEWEB-0361             
1 49287U 21090J   26185.80018292  .00000101  00000+0  21601-3 0  9998
2 49287  87.9195 270.9299 0002067  95.6457 264.4912 13.20772114232621
ONEWEB-0362             
1 49288U 21090K   26185.76672954  .00000063  00000+0  12596-3 0  9995
2 49288  87.9184 301.4766 0002173 104.8101 255.3273 13.19725370229238
ONEWEB-0363             
1 49289U 21090L   26185.73958128  .00000057  00000+0  10937-3 0  9993
2 49289  87.9193 270.9421 0001830  91.8827 268.2516 13.20771688232621
ONEWEB-0364             
1 49290U 21090M   26185.77828334  .00000327  00000+0  77102-3 0  9991
2 49290  87.9192 270.9422 0002162  98.9646 261.1732 13.20775985233761
